ONEWEB-0228             
1 48780U 21045P   23353.29025999  .00000009  00000+0 -11155-4 0  9996
2 48780  87.9002  80.5178 0001587 105.9461 254.1844 13.15541094124560
